NORAD_CAT_ID,OBJECT_NAME,OBJECT_TYPE,EPOCH,MEAN_MOTION,ECCENTRICITY,INCLINATION,RA_OF_ASC_NODE,ARG_OF_PERICENTER,MEAN_ANOMALY,BSTAR,MEAN_MOTION_DOT,MEAN_MOTION_DDOT,TLE_LINE0,TLE_LINE1,TLE_LINE2,SEMIMAJOR_AXIS,PERIOD,APOGEE,PERIGEE,DECAYED
55641.0,STARLINK-5065,PAYLOAD,2023-10-27 03:57:33,14.98342579,0.0002699,70.0008,204.2422,266.232,93.853,7.0113e-05,7.44e-06,0.0,0 STARLINK-5065,1 55641U 23021P   23300.16496923  .00000744  00000-0  70113-4 0  9998,2 55641  70.0008 204.2422 0002699 266.2320  93.8530 14.98342579 38990,6950.154,96.106,573.895,570.143,0.0
55641.0,STARLINK-5065,PAYLOAD,2023-10-27 21:35:03,14.98327323,0.0001912,70.003,202.3924,270.8821,89.2119,1.6038e-05,9.9e-07,0.0,0 STARLINK-5065,1 55641U 23021P   23300.89934077  .00000099  00000-0  16038-4 0  9994,2 55641  70.0030 202.3924 0001912 270.8821  89.2119 14.98327323 39404,6950.201,96.107,573.395,570.737,0.0
55641.0,STARLINK-5065,PAYLOAD,2023-10-28 00:47:19,14.98326174,0.0002569,70.0008,202.0535,269.9674,90.1191,-3.5871e-05,-5.21e-06,0.0,0 STARLINK-5065,1 55641U 23021P   23301.03286215 -.00000521  00000-0 -35871-4 0  9993,2 55641  70.0008 202.0535 0002569 269.9674  90.1191 14.98326174 39121,6950.205,96.107,573.855,570.284,0.0
55641.0,STARLINK-5065,PAYLOAD,2023-10-28 10:24:07,14.98351667,0.000252,70.0014,201.0439,275.0636,85.0236,-0.00046957,-5.694e-05,0.0,0 STARLINK-5065,1 55641U 23021P   23301.43341629 -.00005694  00000-0 -46957-3 0  9990,2 55641  70.0014 201.0439 0002520 275.0636  85.0236 14.98351667 39187,6950.126,96.106,573.742,570.239,0.0
55641.0,STARLINK-5065,PAYLOAD,2023-10-28 20:00:55,14.98331034,0.0002655,70.0012,200.0344,269.3735,90.712,-4.5438e-05,-6.35e-06,0.0,0 STARLINK-5065,1 55641U 23021P   23301.83397900 -.00000635  00000-0 -45438-4 0  9991,2 55641  70.0012 200.0344 0002655 269.3735  90.7120 14.98331034 39242,6950.19,96.107,573.9,570.209,0.0
55641.0,STARLINK-5065,PAYLOAD,2023-10-28 23:13:11,14.98334591,0.0002584,70.0011,199.6984,263.3215,96.765,-2.3683e-05,-3.76e-06,0.0,0 STARLINK-5065,1 55641U 23021P   23301.96749599 -.00000376  00000-0 -23683-4 0  9990,2 55641  70.0011 199.6984 0002584 263.3215  96.7650 14.98334591 39562,6950.179,96.107,573.84,570.248,0.0
55641.0,STARLINK-5065,PAYLOAD,2023-10-29 10:26:07,14.98335074,0.000313,70.0005,198.5192,271.0496,89.0304,-0.0001032,-1.324e-05,0.0,0 STARLINK-5065,1 55641U 23021P   23302.43481447 -.00001324  00000-0 -10320-3 0  9995,2 55641  70.0005 198.5192 0003130 271.0496  89.0304 14.98335074 39635,6950.177,96.107,574.218,569.867,0.0
55641.0,STARLINK-5065,PAYLOAD,2023-10-29 21:39:05,14.98324142,0.000271,70.0006,197.3412,272.4359,87.649,-2.1331e-05,-3.47e-06,0.0,0 STARLINK-5065,1 55641U 23021P   23302.90214311 -.00000347  00000-0 -21331-4 0  9990,2 55641  70.0006 197.3412 0002710 272.4359  87.6490 14.98324142 39403,6950.211,96.107,573.96,570.192,0.0
55641.0,STARLINK-5065,PAYLOAD,2023-10-30 02:27:28,14.98332263,0.0002579,70.0008,196.836,275.4319,84.6546,6.8573e-05,7.25e-06,0.0,0 STARLINK-5065,1 55641U 23021P   23303.10241658  .00000725  00000-0  68573-4 0  9994,2 55641  70.0008 196.8360 0002579 275.4319  84.6546 14.98332263 39438,6950.186,96.107,573.843,570.258,0.0
55641.0,STARLINK-5065,PAYLOAD,2023-10-30 10:28:09,14.98326998,0.0002688,70.0009,195.9945,273.0033,87.0819,2.5491e-06,-6.3e-07,0.0,0 STARLINK-5065,1 55641U 23021P   23303.43622138 -.00000063  00000-0  25491-5 0  9995,2 55641  70.0009 195.9945 0002688 273.0033  87.0819 14.98326998 39489,6950.202,96.107,573.935,570.199,0.0
55641.0,STARLINK-5065,PAYLOAD,2023-10-30 20:04:58,14.98327581,0.0002497,70.0013,194.986,273.5389,86.5484,-3.5845e-05,-5.21e-06,0.0,0 STARLINK-5065,1 55641U 23021P   23303.83678351 -.00000521  00000-0 -35845-4 0  9990,2 55641  70.0013 194.9860 0002497 273.5389  86.5484 14.98327581 39847,6950.2,96.107,573.801,570.33,0.0
55641.0,STARLINK-5065,PAYLOAD,2023-10-31 10:30:10,14.98350168,0.0002953,70.0006,193.4702,275.6893,84.393,-0.00035879,-4.374e-05,0.0,0 STARLINK-5065,1 55641U 23021P   23304.43761624 -.00004374  00000-0 -35879-3 0  9999,2 55641  70.0006 193.4702 0002953 275.6893  84.3930 14.98350168 39634,6950.131,96.106,574.048,569.943,0.0
55641.0,STARLINK-5065,PAYLOAD,2023-10-31 20:06:58,14.98328382,0.0002941,70.0006,192.4603,271.8826,88.1996,9.7654e-05,1.072e-05,0.0,0 STARLINK-5065,1 55641U 23021P   23304.83817911  .00001072  00000-0  97654-4 0  9994,2 55641  70.0006 192.4603 0002941 271.8826  88.1996 14.98328382 39697,6950.198,96.107,574.107,570.019,0.0
55641.0,STARLINK-5065,PAYLOAD,2023-10-31 21:43:06,14.98328863,0.0002953,70.0004,192.2916,271.4168,88.6652,8.0111e-05,8.63e-06,0.0,0 STARLINK-5065,1 55641U 23021P   23304.90493946  .00000863  00000-0  80111-4 0  9997,2 55641  70.0004 192.2916 0002953 271.4168  88.6652 14.98328863 40003,6950.196,96.107,574.114,570.009,0.0
55641.0,STARLINK-5065,PAYLOAD,2023-11-01 02:31:30,14.98336443,0.000262,70.0003,191.7866,260.012,100.0743,9.0548e-05,9.88e-06,0.0,0 STARLINK-5065,1 55641U 23021P   23305.10521359  .00000988  00000-0  90548-4 0  9993,2 55641  70.0003 191.7866 0002620 260.0120 100.0743 14.98336443 39734,6950.173,96.107,573.859,570.217,0.0
55641.0,STARLINK-5065,PAYLOAD,2023-11-01 10:32:10,14.98362269,0.0002981,70.0012,190.9455,265.15,94.9318,-0.00044605,-5.416e-05,0.0,0 STARLINK-5065,1 55641U 23021P   23305.43900854 -.00005416  00000-0 -44605-3 0  9995,2 55641  70.0012 190.9455 0002981 265.1500  94.9318 14.98362269 39786,6950.093,96.105,574.03,569.886,0.0
55641.0,STARLINK-5065,PAYLOAD,2023-11-01 20:08:59,14.98329889,0.0002829,70.0006,189.9348,269.8217,90.2618,7.2442e-05,7.71e-06,0.0,0 STARLINK-5065,1 55641U 23021P   23305.83957698  .00000771  00000-0  72442-4 0  9995,2 55641  70.0006 189.9348 0002829 269.8217  90.2618 14.98329889 39845,6950.193,96.107,574.024,570.092,0.0
55641.0,STARLINK-5065,PAYLOAD,2023-11-01 21:45:07,14.98321286,0.0003253,69.999,189.7666,266.3713,93.7074,5.8539e-06,-2.3e-07,0.0,0 STARLINK-5065,1 55641U 23021P   23305.90634252 -.00000023  00000-0  58539-5 0  9994,2 55641  69.9990 189.7666 0003253 266.3713  93.7074 14.98321286 40153,6950.22,96.108,574.346,569.824,0.0
55641.0,STARLINK-5065,PAYLOAD,2023-11-02 02:33:31,14.98318417,0.0002857,70.0003,189.2624,272.4904,87.5928,0.00030993,3.606e-05,0.0,0 STARLINK-5065,1 55641U 23021P   23306.10661777  .00003606  00000-0  30993-3 0  9990,2 55641  70.0003 189.2624 0002857 272.4904  87.5928 14.98318417 40183,6950.229,96.108,574.079,570.108,0.0
55641.0,STARLINK-5065,PAYLOAD,2023-11-02 20:11:00,14.98331748,0.000285,70.0009,187.4114,265.3225,94.7609,-3.4752e-05,-5.08e-06,0.0,0 STARLINK-5065,1 55641U 23021P   23306.84097681 -.00000508  00000-0 -34752-4 0  9996,2 55641  70.0009 187.4114 0002850 265.3225  94.7609 14.98331748 39998,6950.187,96.107,574.033,570.072,0.0
55641.0,STARLINK-5065,PAYLOAD,2023-11-03 00:59:23,14.98384199,0.0002694,69.9993,186.9053,266.2939,93.7912,-0.00072713,-8.77e-05,0.0,0 STARLINK-5065,1 55641U 23021P   23307.04124031 -.00008770  00000-0 -72713-3 0  9996,2 55641  69.9993 186.9053 0002694 266.2939  93.7912 14.98384199 40021,6950.025,96.104,573.763,570.018,0.0
55641.0,STARLINK-5065,PAYLOAD,2023-11-03 09:00:04,14.98342186,0.0002696,70.0009,186.0645,269.7333,90.3517,-0.00021163,-2.618e-05,0.0,0 STARLINK-5065,1 55641U 23021P   23307.37505331 -.00002618  00000-0 -21163-3 0  9996,2 55641  70.0009 186.0645 0002696 269.7333  90.3517 14.98342186 40077,6950.155,96.106,573.894,570.146,0.0
55641.0,STARLINK-5065,PAYLOAD,2023-11-03 18:36:53,14.98329195,0.0002717,70.0009,185.055,270.9733,89.1115,-1.0445e-05,-2.18e-06,0.0,0 STARLINK-5065,1 55641U 23021P   23307.77561643 -.00000218  00000-0 -10445-4 0  9994,2 55641  70.0009 185.0550 0002717 270.9733  89.1115 14.98329195 40135,6950.195,96.107,573.949,570.172,0.0
55641.0,STARLINK-5065,PAYLOAD,2023-11-03 21:49:09,14.98329486,0.0002702,70.0009,184.7182,270.6746,89.4103,-1.6853e-05,-2.94e-06,0.0,0 STARLINK-5065,1 55641U 23021P   23307.90913644 -.00000294  00000-0 -16853-4 0  9994,2 55641  70.0009 184.7182 0002702 270.6746  89.4103 14.98329486 40455,6950.194,96.107,573.937,570.182,0.0
55641.0,STARLINK-5065,PAYLOAD,2023-11-04 09:02:05,14.98340478,0.0002682,70.0008,183.5401,273.032,87.0532,-0.00027893,-3.42e-05,0.0,0 STARLINK-5065,1 55641U 23021P   23308.37645555 -.00003420  00000-0 -27893-3 0  9998,2 55641  70.0008 183.5401 0002682 273.0320  87.0532 14.98340478 40529,6950.16,96.106,573.89,570.161,0.0
55641.0,STARLINK-5065,PAYLOAD,2023-11-04 20:15:02,14.98290899,0.0002657,70.0006,182.3616,265.4465,94.639,0.00062517,7.367e-05,0.0,0 STARLINK-5065,1 55641U 23021P   23308.84378113  .00007367  00000-0  62517-3 0  9997,2 55641  70.0006 182.3616 0002657 265.4465  94.6390 14.98290899 40290,6950.314,96.11,574.026,570.332,0.0
55641.0,STARLINK-5065,PAYLOAD,2023-11-04 21:51:10,14.98330107,0.0002946,70.0004,182.1933,265.3705,94.7117,3.6073e-05,3.37e-06,0.0,0 STARLINK-5065,1 55641U 23021P   23308.91053410  .00000337  00000-0  36073-4 0  9994,2 55641  70.0004 182.1933 0002946 265.3705  94.7117 14.98330107 40605,6950.193,96.107,574.105,570.01,0.0
55641.0,STARLINK-5065,PAYLOAD,2023-11-05 02:39:34,14.98332339,0.0002835,70.0005,181.6882,264.1446,95.939,5.8789e-05,6.09e-06,0.0,0 STARLINK-5065,1 55641U 23021P   23309.11081201  .00000609  00000-0  58789-4 0  9996,2 55641  70.0005 181.6882 0002835 264.1446  95.9390 14.98332339 40334,6950.186,96.107,574.021,570.08,0.0
55641.0,STARLINK-5065,PAYLOAD,2023-11-05 09:04:06,14.98332495,0.0002633,70.0008,181.0151,271.2056,88.8801,3.8806e-05,3.7e-06,0.0,0 STARLINK-5065,1 55641U 23021P   23309.37785258  .00000370  00000-0  38806-4 0  9990,2 55641  70.0008 181.0151 0002633 271.2056  88.8801 14.98332495 40670,6950.185,96.107,573.88,570.22,0.0
55641.0,STARLINK-5065,PAYLOAD,2023-11-05 20:17:02,14.98338094,0.0002839,69.9999,179.8362,269.8966,90.1868,0.00014148,1.596e-05,0.0,0 STARLINK-5065,1 55641U 23021P   23309.84516365  .00001596  00000-0  14148-3 0  9996,2 55641  69.9999 179.8362 0002839 269.8966  90.1868 14.98338094 40441,6950.168,96.106,574.006,570.06,0.0
